{
"type": "FeatureCollection",
"name": "cobbsTractsSF",
"crs": { "type": "name", "properties": { "name": "urn:ogc:def:crs:OGC:1.3:CRS84" } },
"features": [
{ "type": "Feature", "properties": { "STATEFP": "42", "COUNTYFP": "101", "TRACTCE": "008301", "GEOIDFQ": "1400000US42101008301", "GEOID": "42101008301", "NAME": "83.01", "NAMELSAD": "Census Tract 83.01", "STUSPS": "PA", "NAMELSADCO": "Philadelphia County", "STATE_NAME": "Pennsylvania", "LSAD": "CT", "ALAND": 510556.0, "AWATER": 6714.0 }, "geometry": { "type": "MultiPolygon", "coordinates": [ [ [ [ -75.250883, 39.959024 ], [ -75.248546, 39.960269 ], [ -75.247688, 39.962817 ], [ -75.246753, 39.962705 ], [ -75.242735, 39.962202 ], [ -75.243371, 39.959166 ], [ -75.243608, 39.95802 ], [ -75.243975, 39.95626 ], [ -75.244084, 39.955743 ], [ -75.24441, 39.954226 ], [ -75.244719, 39.952676 ], [ -75.250816, 39.953475 ], [ -75.249006, 39.956907 ], [ -75.249499, 39.957189 ], [ -75.250883, 39.959024 ] ] ] ] } },
{ "type": "Feature", "properties": { "STATEFP": "42", "COUNTYFP": "101", "TRACTCE": "008302", "GEOIDFQ": "1400000US42101008302", "GEOID": "42101008302", "NAME": "83.02", "NAMELSAD": "Census Tract 83.02", "STUSPS": "PA", "NAMELSADCO": "Philadelphia County", "STATE_NAME": "Pennsylvania", "LSAD": "CT", "ALAND": 425236.0, "AWATER": 0.0 }, "geometry": { "type": "MultiPolygon", "coordinates": [ [ [ [ -75.24441, 39.954226 ], [ -75.244084, 39.955743 ], [ -75.243975, 39.95626 ], [ -75.243608, 39.95802 ], [ -75.243371, 39.959166 ], [ -75.242735, 39.962202 ], [ -75.240762, 39.96196 ], [ -75.238785, 39.961715 ], [ -75.239658, 39.957534 ], [ -75.239909, 39.956313 ], [ -75.240137, 39.955252 ], [ -75.238166, 39.955011 ], [ -75.238476, 39.953485 ], [ -75.238796, 39.951942 ], [ -75.242754, 39.952432 ], [ -75.244719, 39.952676 ], [ -75.24441, 39.954226 ] ] ] ] } },
{ "type": "Feature", "properties": { "STATEFP": "42", "COUNTYFP": "101", "TRACTCE": "008101", "GEOIDFQ": "1400000US42101008101", "GEOID": "42101008101", "NAME": "81.01", "NAMELSAD": "Census Tract 81.01", "STUSPS": "PA", "NAMELSADCO": "Philadelphia County", "STATE_NAME": "Pennsylvania", "LSAD": "CT", "ALAND": 243881.0, "AWATER": 0.0 }, "geometry": { "type": "MultiPolygon", "coordinates": [ [ [ [ -75.239641, 39.947932 ], [ -75.239232, 39.949923 ], [ -75.239118, 39.950446 ], [ -75.235165, 39.949953 ], [ -75.230959, 39.949438 ], [ -75.231289, 39.94782 ], [ -75.233604, 39.947351 ], [ -75.235822, 39.946835 ], [ -75.240052, 39.945917 ], [ -75.239641, 39.947932 ] ] ] ] } },
{ "type": "Feature", "properties": { "STATEFP": "42", "COUNTYFP": "101", "TRACTCE": "008102", "GEOIDFQ": "1400000US42101008102", "GEOID": "42101008102", "NAME": "81.02", "NAMELSAD": "Census Tract 81.02", "STUSPS": "PA", "NAMELSADCO": "Philadelphia County", "STATE_NAME": "Pennsylvania", "LSAD": "CT", "ALAND": 362526.0, "AWATER": 0.0 }, "geometry": { "type": "MultiPolygon", "coordinates": [ [ [ [ -75.238796, 39.951942 ], [ -75.238476, 39.953485 ], [ -75.238166, 39.955011 ], [ -75.234212, 39.954521 ], [ -75.232153, 39.954262 ], [ -75.229999, 39.953996 ], [ -75.230323, 39.952475 ], [ -75.230635, 39.950922 ], [ -75.230793, 39.950172 ], [ -75.230959, 39.949438 ], [ -75.235165, 39.949953 ], [ -75.239118, 39.950446 ], [ -75.238796, 39.951942 ] ] ] ] } },
{ "type": "Feature", "properties": { "STATEFP": "42", "COUNTYFP": "101", "TRACTCE": "008200", "GEOIDFQ": "1400000US42101008200", "GEOID": "42101008200", "NAME": "82", "NAMELSAD": "Census Tract 82", "STUSPS": "PA", "NAMELSADCO": "Philadelphia County", "STATE_NAME": "Pennsylvania", "LSAD": "CT", "ALAND": 832282.0, "AWATER": 11202.0 }, "geometry": { "type": "MultiPolygon", "coordinates": [ [ [ [ -75.251577, 39.952127 ], [ -75.250816, 39.953475 ], [ -75.244719, 39.952676 ], [ -75.242754, 39.952432 ], [ -75.238796, 39.951942 ], [ -75.239118, 39.950446 ], [ -75.239232, 39.949923 ], [ -75.239641, 39.947932 ], [ -75.240052, 39.945917 ], [ -75.240266, 39.945866 ], [ -75.241771, 39.945297 ], [ -75.246634, 39.943541 ], [ -75.247028, 39.943414 ], [ -75.247208, 39.943904 ], [ -75.250118, 39.94697 ], [ -75.251609, 39.951466 ], [ -75.251577, 39.952127 ] ] ] ] } },
{ "type": "Feature", "properties": { "STATEFP": "42", "COUNTYFP": "101", "TRACTCE": "008400", "GEOIDFQ": "1400000US42101008400", "GEOID": "42101008400", "NAME": "84", "NAMELSAD": "Census Tract 84", "STUSPS": "PA", "NAMELSADCO": "Philadelphia County", "STATE_NAME": "Pennsylvania", "LSAD": "CT", "ALAND": 501763.0, "AWATER": 0.0 }, "geometry": { "type": "MultiPolygon", "coordinates": [ [ [ [ -75.239909, 39.956313 ], [ -75.239658, 39.957534 ], [ -75.238785, 39.961715 ], [ -75.236808, 39.961471 ], [ -75.234869, 39.961231 ], [ -75.232857, 39.960976 ], [ -75.230801, 39.960722 ], [ -75.231277, 39.958448 ], [ -75.231557, 39.957102 ], [ -75.231937, 39.955319 ], [ -75.232153, 39.954262 ], [ -75.234212, 39.954521 ], [ -75.238166, 39.955011 ], [ -75.240137, 39.955252 ], [ -75.239909, 39.956313 ] ] ] ] } }
]
}
