{
"type": "FeatureCollection",
"name": "strawberryTractsSF",
"crs": { "type": "name", "properties": { "name": "urn:ogc:def:crs:OGC:1.3:CRS84" } },
"features": [
{ "type": "Feature", "properties": { "STATEFP": "42", "COUNTYFP": "101", "TRACTCE": "016901", "GEOIDFQ": "1400000US42101016901", "GEOID": "42101016901", "NAME": "169.01", "NAMELSAD": "Census Tract 169.01", "STUSPS": "PA", "NAMELSADCO": "Philadelphia County", "STATE_NAME": "Pennsylvania", "LSAD": "CT", "ALAND": 512906.0, "AWATER": 0.0 }, "geometry": { "type": "MultiPolygon", "coordinates": [ [ [ [ -75.179748, 39.991715 ], [ -75.179584, 39.992463 ], [ -75.179248, 39.993963 ], [ -75.178576, 39.99704 ], [ -75.175539, 39.996639 ], [ -75.173948, 39.996432 ], [ -75.172355, 39.99624 ], [ -75.170767, 39.996036 ], [ -75.171173, 39.994165 ], [ -75.171441, 39.992946 ], [ -75.171594, 39.9922 ], [ -75.173182, 39.992412 ], [ -75.173682, 39.990167 ], [ -75.175803, 39.988812 ], [ -75.177206, 39.988991 ], [ -75.180257, 39.989388 ], [ -75.179748, 39.991715 ] ] ] ] } },
{ "type": "Feature", "properties": { "STATEFP": "42", "COUNTYFP": "101", "TRACTCE": "015101", "GEOIDFQ": "1400000US42101015101", "GEOID": "42101015101", "NAME": "151.01", "NAMELSAD": "Census Tract 151.01", "STUSPS": "PA", "NAMELSADCO": "Philadelphia County", "STATE_NAME": "Pennsylvania", "LSAD": "CT", "ALAND": 193072.0, "AWATER": 0.0 }, "geometry": { "type": "MultiPolygon", "coordinates": [ [ [ [ -75.187382, 39.98713 ], [ -75.186713, 39.990215 ], [ -75.183459, 39.9898 ], [ -75.184136, 39.986721 ], [ -75.184794, 39.983706 ], [ -75.188033, 39.984126 ], [ -75.187382, 39.98713 ] ] ] ] } },
{ "type": "Feature", "properties": { "STATEFP": "42", "COUNTYFP": "101", "TRACTCE": "016902", "GEOIDFQ": "1400000US42101016902", "GEOID": "42101016902", "NAME": "169.02", "NAMELSAD": "Census Tract 169.02", "STUSPS": "PA", "NAMELSADCO": "Philadelphia County", "STATE_NAME": "Pennsylvania", "LSAD": "CT", "ALAND": 563694.0, "AWATER": 0.0 }, "geometry": { "type": "MultiPolygon", "coordinates": [ [ [ [ -75.187604, 39.998195 ], [ -75.182341, 39.997519 ], [ -75.180188, 39.997253 ], [ -75.178576, 39.99704 ], [ -75.179248, 39.993963 ], [ -75.179584, 39.992463 ], [ -75.179748, 39.991715 ], [ -75.180257, 39.989388 ], [ -75.181875, 39.989583 ], [ -75.183459, 39.9898 ], [ -75.186713, 39.990215 ], [ -75.186148, 39.992662 ], [ -75.186976, 39.994344 ], [ -75.187555, 39.995829 ], [ -75.187604, 39.998195 ] ] ] ] } },
{ "type": "Feature", "properties": { "STATEFP": "42", "COUNTYFP": "101", "TRACTCE": "014900", "GEOIDFQ": "1400000US42101014900", "GEOID": "42101014900", "NAME": "149", "NAMELSAD": "Census Tract 149", "STUSPS": "PA", "NAMELSADCO": "Philadelphia County", "STATE_NAME": "Pennsylvania", "LSAD": "CT", "ALAND": 453220.0, "AWATER": 0.0 }, "geometry": { "type": "MultiPolygon", "coordinates": [ [ [ [ -75.188033, 39.984126 ], [ -75.184794, 39.983706 ], [ -75.181758, 39.983325 ], [ -75.181579, 39.983313 ], [ -75.179952, 39.983108 ], [ -75.176933, 39.982713 ], [ -75.175344, 39.982517 ], [ -75.174991, 39.98246 ], [ -75.174771, 39.982444 ], [ -75.172161, 39.9821 ], [ -75.172503, 39.980592 ], [ -75.172799, 39.97916 ], [ -75.174393, 39.97938 ], [ -75.175989, 39.979572 ], [ -75.177585, 39.979774 ], [ -75.179172, 39.979988 ], [ -75.180591, 39.980167 ], [ -75.181135, 39.980238 ], [ -75.182215, 39.980373 ], [ -75.183838, 39.980585 ], [ -75.185497, 39.980804 ], [ -75.188661, 39.981207 ], [ -75.188033, 39.984126 ] ] ] ] } },
{ "type": "Feature", "properties": { "STATEFP": "42", "COUNTYFP": "101", "TRACTCE": "015102", "GEOIDFQ": "1400000US42101015102", "GEOID": "42101015102", "NAME": "151.02", "NAMELSAD": "Census Tract 151.02", "STUSPS": "PA", "NAMELSADCO": "Philadelphia County", "STATE_NAME": "Pennsylvania", "LSAD": "CT", "ALAND": 556564.0, "AWATER": 0.0 }, "geometry": { "type": "MultiPolygon", "coordinates": [ [ [ [ -75.184136, 39.986721 ], [ -75.183459, 39.9898 ], [ -75.181875, 39.989583 ], [ -75.180257, 39.989388 ], [ -75.177206, 39.988991 ], [ -75.175803, 39.988812 ], [ -75.174665, 39.988427 ], [ -75.174044, 39.988507 ], [ -75.174694, 39.985506 ], [ -75.175344, 39.982517 ], [ -75.176933, 39.982713 ], [ -75.179952, 39.983108 ], [ -75.181579, 39.983313 ], [ -75.181758, 39.983325 ], [ -75.184794, 39.983706 ], [ -75.184136, 39.986721 ] ] ] ] } }
]
}
